NORAD_CAT_ID,OBJECT_NAME,OBJECT_TYPE,EPOCH,MEAN_MOTION,ECCENTRICITY,INCLINATION,RA_OF_ASC_NODE,ARG_OF_PERICENTER,MEAN_ANOMALY,BSTAR,MEAN_MOTION_DOT,MEAN_MOTION_DDOT,TLE_LINE0,TLE_LINE1,TLE_LINE2,SEMIMAJOR_AXIS,PERIOD,APOGEE,PERIGEE,DECAYED
55275.0,STARLINK-5260,PAYLOAD,2023-02-24 19:36:47,15.69934433,0.0003009,70.0004,326.9088,272.2836,87.8015,8.7807e-05,0.00010362,0.0,0 STARLINK-5260,1 55275U 23010G   23055.81722043  .00010362  00000-0  87807-4 0  9998,2 55275  70.0004 326.9088 0003009 272.2836  87.8015 15.69934433  6524,6737.222,91.724,361.114,357.059,0.0
55275.0,STARLINK-5260,PAYLOAD,2023-02-25 03:15:33,15.69935324,0.0003355,70.0005,326.0127,267.6912,92.39,7.7486e-05,9.119e-05,0.0,0 STARLINK-5260,1 55275U 23010G   23056.13580263  .00009119  00000-0  77486-4 0  9990,2 55275  70.0005 326.0127 0003355 267.6912  92.3900 15.69935324  6576,6737.219,91.724,361.344,356.824,0.0
55275.0,STARLINK-5260,PAYLOAD,2023-02-25 18:33:04,15.69930383,0.0003129,70.0,324.2213,263.4718,96.6121,7.7792e-05,9.153e-05,0.0,0 STARLINK-5260,1 55275U 23010G   23056.77297327  .00009153  00000-0  77792-4 0  9994,2 55275  70.0000 324.2213 0003129 263.4718  96.6121 15.69930383  6352,6737.233,91.724,361.206,356.99,0.0
55275.0,STARLINK-5260,PAYLOAD,2023-02-25 20:04:50,15.69928973,0.0003083,69.9998,324.0415,268.6683,91.416,8.6143e-05,0.00010159,0.0,0 STARLINK-5260,1 55275U 23010G   23056.83669092  .00010159  00000-0  86143-4 0  9991,2 55275  69.9998 324.0415 0003083 268.6683  91.4160 15.69928973  6688,6737.237,91.724,361.179,357.025,0.0
55275.0,STARLINK-5260,PAYLOAD,2023-02-26 05:15:20,15.69955166,0.0004323,70.0005,322.967,255.3732,104.6985,0.00031713,0.00038149,0.0,0 STARLINK-5260,1 55275U 23010G   23057.21898483  .00038149  00000-0  31713-3 0  9993,2 55275  70.0005 322.9670 0004323 255.3732 104.6985 15.69955166  6424,6737.162,91.722,361.94,356.115,0.0
55275.0,STARLINK-5260,PAYLOAD,2023-02-26 17:29:21,15.69944518,0.0003271,70.0006,321.5342,263.1031,96.9793,0.00017403,0.00020782,0.0,0 STARLINK-5260,1 55275U 23010G   23057.72872333  .00020782  00000-0  17403-3 0  9999,2 55275  70.0006 321.5342 0003271 263.1031  96.9793 15.69944518  6504,6737.193,91.723,361.261,356.854,0.0
55275.0,STARLINK-5260,PAYLOAD,2023-02-26 23:36:22,15.69929922,0.0003401,70.0006,320.8175,266.5036,93.5771,0.0001198,0.0001422,0.0,0 STARLINK-5260,1 55275U 23010G   23057.98359108  .00014220  00000-0  11980-3 0  9991,2 55275  70.0006 320.8175 0003401 266.5036  93.5771 15.69929922  6542,6737.234,91.724,361.391,356.808,0.0
55275.0,STARLINK-5260,PAYLOAD,2023-02-27 02:39:52,15.69954178,0.0003326,70.0006,320.4599,265.5415,94.5401,0.00046282,0.00055878,0.0,0 STARLINK-5260,1 55275U 23010G   23058.11102339  .00055878  00000-0  46282-3 0  9996,2 55275  70.0006 320.4599 0003326 265.5415  94.5401 15.69954178  6568,6737.165,91.722,361.271,356.789,0.0
55275.0,STARLINK-5260,PAYLOAD,2023-02-27 17:57:22,15.69990966,0.0004788,70.0008,318.6656,246.4669,113.6024,0.00042799,0.00051726,0.0,0 STARLINK-5260,1 55275U 23010G   23058.74817466  .00051726  00000-0  42799-3 0  9996,2 55275  70.0008 318.6656 0004788 246.4669 113.6024 15.69990966  6665,6737.06,91.72,362.151,355.699,0.0
55275.0,STARLINK-5260,PAYLOAD,2023-02-27 21:00:52,15.69938137,0.000387,70.0,318.3095,264.6055,95.4699,8.4447e-05,9.96e-05,0.0,0 STARLINK-5260,1 55275U 23010G   23058.87561097  .00009960  00000-0  84447-4 0  9996,2 55275  70.0000 318.3095 0003870 264.6055  95.4699 15.69938137  7009,6737.211,91.723,361.683,356.469,0.0
55275.0,STARLINK-5260,PAYLOAD,2023-02-28 23:00:42,15.69929204,0.0003768,70.001,315.2645,263.4401,96.6366,0.00034781,0.00041829,0.0,0 STARLINK-5260,1 55275U 23010G   23059.95882095  .00041829  00000-0  34781-3 0  9995,2 55275  70.0010 315.2645 0003768 263.4401  96.6366 15.69929204  7172,6737.237,91.724,361.64,356.563,0.0
55275.0,STARLINK-5260,PAYLOAD,2023-03-01 20:25:12,15.69965515,0.0002943,70.0016,312.7554,251.0613,109.0264,0.00020377,0.00024401,0.0,0 STARLINK-5260,1 55275U 23010G   23060.85084463  .00024401  00000-0  20377-3 0  9992,2 55275  70.0016 312.7554 0002943 251.0613 109.0264 15.69965515  7318,6737.133,91.722,360.98,357.015,0.0
55275.0,STARLINK-5260,PAYLOAD,2023-03-02 19:21:29,15.69932384,0.0002526,70.0026,310.0708,248.1735,111.9192,0.00013096,0.00015567,0.0,0 STARLINK-5260,1 55275U 23010G   23061.80659664  .00015567  00000-0  13096-3 0  9992,2 55275  70.0026 310.0708 0002526 248.1735 111.9192 15.69932384  7466,6737.227,91.724,360.794,357.391,0.0
55275.0,STARLINK-5260,PAYLOAD,2023-03-03 01:28:28,15.70074146,0.0005009,70.0017,309.3527,285.1949,74.8693,0.00072216,0.00088114,0.0,0 STARLINK-5260,1 55275U 23010G   23062.06143863  .00088114  00000-0  72216-3 0  9997,2 55275  70.0017 309.3527 0005009 285.1949  74.8693 15.70074146  7180,6736.822,91.715,362.061,355.312,0.0
55275.0,STARLINK-5260,PAYLOAD,2023-03-03 22:52:46,15.70256676,0.0012233,70.001,306.8449,213.3646,146.678,0.00060189,0.00074094,0.0,0 STARLINK-5260,1 55275U 23010G   23062.95331756  .00074094  00000-0  60189-3 0  9993,2 55275  70.0010 306.8449 0012233 213.3646 146.6780 15.70256676  7323,6736.3,91.705,366.405,349.924,0.0
55275.0,STARLINK-5260,PAYLOAD,2023-03-04 00:24:46,15.69940838,0.0002881,70.0022,306.6672,253.9805,106.1073,6.3552e-05,7.441e-05,0.0,0 STARLINK-5260,1 55275U 23010G   23063.01720695  .00007441  00000-0  63552-4 0  9995,2 55275  70.0022 306.6672 0002881 253.9805 106.1073 15.69940838  7332,6737.203,91.723,361.009,357.127,0.0
55275.0,STARLINK-5260,PAYLOAD,2023-03-04 10:00:01,15.69865466,0.000344,70.0005,305.5425,273.7052,183.441,0.00066579,0.00080419,0.0,0 STARLINK-5260,1 55275U 23010G   23063.41668981  .00080419  00000-0  66579-3 0  9995,2 55275  70.0005 305.5425 0003440 273.7052 183.4410 15.69865466  7395,6737.419,91.728,361.602,356.966,0.0
55275.0,STARLINK-5260,PAYLOAD,2023-03-04 14:00:01,15.69885888,0.0003477,70.0004,305.074,271.1656,47.5557,0.00081568,0.00098874,0.0,0 STARLINK-5260,1 55275U 23010G   23063.58334491  .00098874  00000-0  81568-3 0  9998,2 55275  70.0004 305.0740 0003477 271.1656  47.5557 15.69885888  1308,6737.36,91.726,361.568,356.883,0.0
55275.0,STARLINK-5260,PAYLOAD,2023-03-05 00:53:01,15.69561644,0.0002776,69.999,303.7984,293.5639,66.5264,-0.00097986,-0.00114694,0.0,0 STARLINK-5260,1 55275U 23010G   23064.03682751 -.00114694  00000-0 -97986-3 0  9996,2 55275  69.9990 303.7984 0002776 293.5639  66.5264 15.69561644  7497,6738.288,91.745,362.024,358.283,0.0
55275.0,STARLINK-5260,PAYLOAD,2023-03-05 14:38:43,15.69876579,0.0003438,69.9985,302.1866,241.8644,118.2204,0.00025668,0.00030704,0.0,0 STARLINK-5260,1 55275U 23010G   23064.61022408  .00030704  00000-0  25668-3 0  9992,2 55275  69.9985 302.1866 0003438 241.8644 118.2204 15.69876579  7586,6737.387,91.727,361.568,356.936,0.0
55275.0,STARLINK-5260,PAYLOAD,2023-03-05 22:17:29,15.69901572,0.0003511,70.0001,301.2921,272.0048,88.0745,0.00038041,0.00045736,0.0,0 STARLINK-5260,1 55275U 23010G   23064.92881765  .00045736  00000-0  38041-3 0  9995,2 55275  70.0001 301.2921 0003511 272.0048  88.0745 15.69901572  7953,6737.316,91.725,361.546,356.815,0.0
55275.0,STARLINK-5260,PAYLOAD,2023-03-06 04:24:39,15.69174486,0.0003057,69.9999,300.5764,206.8117,153.292,-0.0028251,-0.00317379,0.0,0 STARLINK-5260,1 55275U 23010G   23065.18379023 -.00317379  00000-0 -28251-2 0  9991,2 55275  69.9999 300.5764 0003057 206.8117 153.2920 15.69174486  7675,6739.397,91.768,363.322,359.201,0.0
55275.0,STARLINK-5260,PAYLOAD,2023-03-07 08:00:01,15.6990639,0.0003683,70.0,297.3425,258.9969,117.2681,-0.0002312,-0.00027902,0.0,0 STARLINK-5260,1 55275U 23010G   23066.33334491 -.00027902  00000-0 -23120-3 0  9990,2 55275  70.0000 297.3425 0003683 258.9969 117.2681 15.69906390  7857,6737.302,91.725,361.648,356.685,0.0
55275.0,STARLINK-5260,PAYLOAD,2023-03-07 14:00:01,15.69931979,0.0003796,70.0001,296.6399,257.8586,90.893,0.00021204,0.00025371,0.0,0 STARLINK-5260,1 55275U 23010G   23066.58334491  .00025371  00000-0  21204-3 0  9994,2 55275  70.0001 296.6399 0003796 257.8586  90.8930 15.69931979  7896,6737.229,91.724,361.651,356.536,0.0
55275.0,STARLINK-5260,PAYLOAD,2023-03-07 22:00:00,15.69899737,0.0003805,70.0003,295.7027,266.0765,166.039,6.735e-05,7.885e-05,0.0,0 STARLINK-5260,1 55275U 23010G   23066.91667824  .00007885  00000-0  67350-4 0  9993,2 55275  70.0003 295.7027 0003805 266.0765 166.0390 15.69899737  7945,6737.321,91.726,361.749,356.622,0.0
55275.0,STARLINK-5260,PAYLOAD,2023-03-08 00:45:09,15.69942,0.000429,70.0012,295.3805,262.6068,97.464,4.7604e-05,5.52e-05,0.0,0 STARLINK-5260,1 55275U 23010G   23067.03136160  .00005520  00000-0  47604-4 0  9995,2 55275  70.0012 295.3805 0004290 262.6068  97.4640 15.69942000  7961,6737.2,91.723,361.955,356.175,0.0
55275.0,STARLINK-5260,PAYLOAD,2023-03-08 23:41:26,15.69940165,0.0003934,70.0018,292.6937,260.4223,99.6528,0.00011057,0.00013113,0.0,0 STARLINK-5260,1 55275U 23010G   23067.98711102  .00013113  00000-0  11057-3 0  9993,2 55275  70.0018 292.6937 0003934 260.4223  99.6528 15.69940165  8113,6737.205,91.723,361.721,356.42,0.0
55275.0,STARLINK-5260,PAYLOAD,2023-03-09 21:05:58,15.69932532,0.0003893,69.9986,290.1845,274.6275,85.4476,3.2271e-05,3.671e-05,0.0,0 STARLINK-5260,1 55275U 23010G   23068.87914541  .00003671  00000-0  32271-4 0  9994,2 55275  69.9986 290.1845 0003893 274.6275  85.4476 15.69932532  8577,6737.227,91.724,361.715,356.469,0.0
55275.0,STARLINK-5260,PAYLOAD,2023-03-10 07:48:14,15.69930278,0.0003753,69.9985,288.931,273.0743,87.0023,4.2223e-05,4.869e-05,0.0,0 STARLINK-5260,1 55275U 23010G   23069.32516382  .00004869  00000-0  42223-4 0  9994,2 55275  69.9985 288.9310 0003753 273.0743  87.0023 15.69930278  8645,6737.233,91.724,361.627,356.57,0.0
55275.0,STARLINK-5260,PAYLOAD,2023-03-11 02:09:16,15.69923701,0.0003272,69.9988,286.7817,277.0804,83.002,2.8561e-05,3.223e-05,0.0,0 STARLINK-5260,1 55275U 23010G   23070.08977119  .00003223  00000-0  28561-4 0  9990,2 55275  69.9988 286.7817 0003272 277.0804  83.0020 15.69923701  8448,6737.252,91.724,361.322,356.913,0.0
